NUSAT-48 (HENRIETTA LE*)
1 60498U 24149AG  26068.80506098  .00012988  00000+0  45212-3 0  9999
2 60498  97.3923 150.8264 0002754 263.3026  96.7901 15.29812597 86946
STARLINK-32807          
1 62845U 25019S   26068.08017430  .00026278  00000+0  96135-3 0  9998
2 62845  42.9955  84.9826 0000983 150.1615 209.9293 15.27569080 62248
